BEIDOU-3 G3 (C61)       
1 45807U 20040A   26115.87420602 -.00000365  00000+0  00000+0 0  9997
2 45807   2.3208  67.2914 0003709 328.9889 242.8620  1.00270758 21542
GALAXY 30 (WAAS/PRN 135)
1 46114U 20056C   26115.68489983  .00000000  00000+0  00000+0 0  9997
2 46114   0.0142 234.9528 0002407 170.7438 289.5604  1.00270886 20762
QZS-1R (QZSS/PRN 196)   
1 49336U 21096A   26115.23905425 -.00000231  00000+0  00000+0 0  9993
2 49336  37.3564  80.3620 0751189 270.8159  83.8411  1.00273350 16482
QZS-6 (QZSS/PRN 200)    
1 62876U 25023A   26115.87316801 -.00000247  00000+0  00000+0 0  9992
2 62876   0.0132  72.2485 0002506 328.8059 217.6377  1.00274283  4434
